{"type":"FeatureCollection","features":[{"type":"Feature","properties":{},"geometry":{"coordinates":[11.571379271431567,48.15310685057989],"type":"Point"}},{"type":"Feature","properties":{},"geometry":{"coordinates":[11.556700074826523,48.2217739159893],"type":"Point"}},{"type":"Feature","properties":{},"geometry":{"coordinates":[11.540243000001539,48.161500421754624],"type":"Point"}},{"type":"Feature","properties":{},"geometry":{"coordinates":[11.58426727116418,48.182186423198345],"type":"Point"}},{"type":"Feature","properties":{},"geometry":{"coordinates":[11.649103271164108,48.097115920868305],"type":"Point"}},{"type":"Feature","properties":{},"geometry":{"coordinates":[11.526425728836301,48.16565195431795],"type":"Point"}}]}